{
  "norad_id": 68483,
  "name": "LEMUR-2-CLARA",
  "history": [
    {
      "epoch": "2026-04-13T20:24:12.356064Z",
      "apogee_km": 593.8836365160741,
      "perigee_km": 587.7495635573205,
      "latitude_deg": 2.254361487010018e-05,
      "longitude_deg": -84.94869461235666,
      "height_km": 595.548008678929,
      "semi_major_axis_km": 6968.953600036697,
      "eccentricity": 0.0004401,
      "inclination_deg": 97.7598,
      "raan_deg": 63.1378,
      "arg_perigee_deg": 123.5501,
      "mean_anomaly_deg": 236.6139,
      "mean_motion_rev_day": 14.92283725
    },
    {
      "epoch": "2026-04-16T20:49:13.270080Z",
      "apogee_km": 593.9852868124308,
      "perigee_km": 587.6156779535331,
      "latitude_deg": -6.397189035118647e-05,
      "longitude_deg": -91.20364329642983,
      "height_km": 595.2498901607223,
      "semi_major_axis_km": 6968.937482382982,
      "eccentricity": 0.000457,
      "inclination_deg": 97.7604,
      "raan_deg": 66.1107,
      "arg_perigee_deg": 116.3576,
      "mean_anomaly_deg": 243.8112,
      "mean_motion_rev_day": 14.92288902
    },
    {
      "epoch": "2026-04-17T14:31:20.081856Z",
      "apogee_km": 594.0210512906642,
      "perigee_km": 587.5715822633201,
      "latitude_deg": -1.6159755123247777e-05,
      "longitude_deg": 3.267677895585422,
      "height_km": 595.1784430641275,
      "semi_major_axis_km": 6968.933316776992,
      "eccentricity": 0.00046273,
      "inclination_deg": 97.7605,
      "raan_deg": 66.8374,
      "arg_perigee_deg": 114.6887,
      "mean_anomaly_deg": 245.4814,
      "mean_motion_rev_day": 14.9229024
    },
    {
      "epoch": "2026-04-21T13:28:06.508416Z",
      "apogee_km": 594.0942140065063,
      "perigee_km": 587.4486629195872,
      "latitude_deg": 3.7466554969305343e-06,
      "longitude_deg": 19.072823613913542,
      "height_km": 594.7109759750665,
      "semi_major_axis_km": 6968.908438463047,
      "eccentricity": 0.0004768,
      "inclination_deg": 97.7609,
      "raan_deg": 70.7353,
      "arg_perigee_deg": 105.8093,
      "mean_anomaly_deg": 254.3652,
      "mean_motion_rev_day": 14.92298231
    },
    {
      "epoch": "2026-04-22T20:02:39.259104Z",
      "apogee_km": 594.1131276306187,
      "perigee_km": 587.4104407799705,
      "latitude_deg": -3.338387225527362e-05,
      "longitude_deg": -79.56403774287482,
      "height_km": 594.5450707890153,
      "semi_major_axis_km": 6968.898784205295,
      "eccentricity": 0.0004809,
      "inclination_deg": 97.761,
      "raan_deg": 71.9906,
      "arg_perigee_deg": 102.9183,
      "mean_anomaly_deg": 257.2573,
      "mean_motion_rev_day": 14.92301332
    },
    {
      "epoch": "2026-04-22T20:02:39.259968Z",
      "apogee_km": 594.1129882526438,
      "perigee_km": 587.4105801579462,
      "latitude_deg": -3.1155743656920544e-05,
      "longitude_deg": -79.56404165474585,
      "height_km": 594.5450396221835,
      "semi_major_axis_km": 6968.898784205295,
      "eccentricity": 0.00048088,
      "inclination_deg": 97.761,
      "raan_deg": 71.9906,
      "arg_perigee_deg": 102.9183,
      "mean_anomaly_deg": 257.2573,
      "mean_motion_rev_day": 14.92301332
    },
    {
      "epoch": "2026-04-24T04:13:44.964768Z",
      "apogee_km": 594.1349812272856,
      "perigee_km": 587.3640111076083,
      "latitude_deg": 3.298823831306755e-05,
      "longitude_deg": 157.66178970015358,
      "height_km": 594.3614787807767,
      "semi_major_axis_km": 6968.886496167446,
      "eccentricity": 0.0004858,
      "inclination_deg": 97.7611,
      "raan_deg": 73.312,
      "arg_perigee_deg": 99.8334,
      "mean_anomaly_deg": 260.3434,
      "mean_motion_rev_day": 14.92305279
    },
    {
      "epoch": "2026-04-25T18:51:02.676096Z",
      "apogee_km": 594.1234335314093,
      "perigee_km": 587.2758546449295,
      "latitude_deg": -4.243734731338121e-05,
      "longitude_deg": -61.662530260201954,
      "height_km": 594.0654881207627,
      "semi_major_axis_km": 6968.836644088169,
      "eccentricity": 0.0004913,
      "inclination_deg": 97.7612,
      "raan_deg": 74.8976,
      "arg_perigee_deg": 95.5695,
      "mean_anomaly_deg": 264.6084,
      "mean_motion_rev_day": 14.92321292
    },
    {
      "epoch": "2026-04-25T18:51:02.676960Z",
      "apogee_km": 594.1231547779444,
      "perigee_km": 587.2761333983944,
      "latitude_deg": -3.78877267498898e-05,
      "longitude_deg": -61.662534486761736,
      "height_km": 594.0654610599281,
      "semi_major_axis_km": 6968.836644088169,
      "eccentricity": 0.00049126,
      "inclination_deg": 97.7612,
      "raan_deg": 74.8976,
      "arg_perigee_deg": 95.5695,
      "mean_anomaly_deg": 264.6084,
      "mean_motion_rev_day": 14.92321292
    },
    {
      "epoch": "2026-04-27T20:44:11.321952Z",
      "apogee_km": 594.0603892698018,
      "perigee_km": 587.2240168715907,
      "latitude_deg": -8.265493587926662e-05,
      "longitude_deg": -89.94888229255531,
      "height_km": 593.7835867180761,
      "semi_major_axis_km": 6968.779203070696,
      "eccentricity": 0.0004905,
      "inclination_deg": 97.7607,
      "raan_deg": 76.946,
      "arg_perigee_deg": 91.8082,
      "mean_anomaly_deg": 268.3698,
      "mean_motion_rev_day": 14.92339743
    },
    {
      "epoch": "2026-04-28T20:52:28.331040Z",
      "apogee_km": 594.0112379883485,
      "perigee_km": 587.2250642222016,
      "latitude_deg": 5.332679446951314e-06,
      "longitude_deg": -92.01987951095772,
      "height_km": 593.6397919725041,
      "semi_major_axis_km": 6968.755151105274,
      "eccentricity": 0.0004869,
      "inclination_deg": 97.7609,
      "raan_deg": 77.9372,
      "arg_perigee_deg": 89.7987,
      "mean_anomaly_deg": 270.379,
      "mean_motion_rev_day": 14.92347469
    },
    {
      "epoch": "2026-04-29T21:00:44.845920Z",
      "apogee_km": 593.9862719441153,
      "perigee_km": 587.1903710106108,
      "latitude_deg": -3.832536652827204e-05,
      "longitude_deg": -94.08889446034142,
      "height_km": 593.5034050757951,
      "semi_major_axis_km": 6968.725321477363,
      "eccentricity": 0.0004876,
      "inclination_deg": 97.7611,
      "raan_deg": 78.9283,
      "arg_perigee_deg": 88.0021,
      "mean_anomaly_deg": 272.1756,
      "mean_motion_rev_day": 14.92357051
    },
    {
      "epoch": "2026-04-30T14:42:48.678624Z",
      "apogee_km": 593.9899969238222,
      "perigee_km": 587.1568975818727,
      "latitude_deg": 1.1197382979982471e-05,
      "longitude_deg": 0.3951720780327403,
      "height_km": 593.4162252773501,
      "semi_major_axis_km": 6968.710447252847,
      "eccentricity": 0.00049027,
      "inclination_deg": 97.7612,
      "raan_deg": 79.6553,
      "arg_perigee_deg": 86.8003,
      "mean_anomaly_deg": 273.3777,
      "mean_motion_rev_day": 14.92361829
    },
    {
      "epoch": "2026-05-02T08:33:07.223904Z",
      "apogee_km": 593.9986253944298,
      "perigee_km": 587.0244019619422,
      "latitude_deg": 3.451994138270439e-05,
      "longitude_deg": 92.8179490809997,
      "height_km": 593.1512186334897,
      "semi_major_axis_km": 6968.648513678186,
      "eccentricity": 0.0005004,
      "inclination_deg": 97.7618,
      "raan_deg": 81.3736,
      "arg_perigee_deg": 83.5196,
      "mean_anomaly_deg": 276.6593,
      "mean_motion_rev_day": 14.92381724
    },
    {
      "epoch": "2026-05-03T18:20:39.167808Z",
      "apogee_km": 593.9797725883473,
      "perigee_km": 586.9387029497057,
      "latitude_deg": 1.6917696362941137e-05,
      "longitude_deg": -54.06494848032744,
      "height_km": 592.9114993089584,
      "semi_major_axis_km": 6968.596237769026,
      "eccentricity": 0.0005052,
      "inclination_deg": 97.7625,
      "raan_deg": 82.7616,
      "arg_perigee_deg": 80.5017,
      "mean_anomaly_deg": 279.6773,
      "mean_motion_rev_day": 14.92398517
    },
    {
      "epoch": "2026-05-04T20:05:25.499616Z",
      "apogee_km": 593.9486977875658,
      "perigee_km": 586.8993014803364,
      "latitude_deg": 1.5806716266970988e-05,
      "longitude_deg": -80.2577602273267,
      "height_km": 592.7271189444823,
      "semi_major_axis_km": 6968.560999633951,
      "eccentricity": 0.0005058,
      "inclination_deg": 97.7629,
      "raan_deg": 83.8192,
      "arg_perigee_deg": 78.0446,
      "mean_anomaly_deg": 282.134,
      "mean_motion_rev_day": 14.92409837
    },
    {
      "epoch": "2026-05-05T15:23:59.703072Z",
      "apogee_km": 593.9342310737838,
      "perigee_km": 586.851417360449,
      "latitude_deg": -2.674398928272994e-05,
      "longitude_deg": -9.90018494051036,
      "height_km": 592.604894647548,
      "semi_major_axis_km": 6968.529824217116,
      "eccentricity": 0.0005082,
      "inclination_deg": 97.7628,
      "raan_deg": 84.6123,
      "arg_perigee_deg": 76.5918,
      "mean_anomaly_deg": 283.5867,
      "mean_motion_rev_day": 14.92419852
    },
    {
      "epoch": "2026-05-06T20:21:50.291136Z",
      "apogee_km": 593.8616496123486,
      "perigee_km": 586.8624891470636,
      "latitude_deg": -2.5292787077751967e-05,
      "longitude_deg": -84.36088471355153,
      "height_km": 592.4167248208752,
      "semi_major_axis_km": 6968.499069379706,
      "eccentricity": 0.0005022,
      "inclination_deg": 97.7627,
      "raan_deg": 85.8019,
      "arg_perigee_deg": 73.7571,
      "mean_anomaly_deg": 286.42,
      "mean_motion_rev_day": 14.92429732
    },
    {
      "epoch": "2026-05-07T20:30:01.965024Z",
      "apogee_km": 593.7875200297412,
      "perigee_km": 586.8929086738617,
      "latitude_deg": 5.2809106863880574e-05,
      "longitude_deg": -86.40949398977745,
      "height_km": 592.2651675231714,
      "semi_major_axis_km": 6968.477214351801,
      "eccentricity": 0.0004947,
      "inclination_deg": 97.7624,
      "raan_deg": 86.7932,
      "arg_perigee_deg": 71.237,
      "mean_anomaly_deg": 288.9386,
      "mean_motion_rev_day": 14.92436753
    },
    {
      "epoch": "2026-05-08T20:38:13.288992Z",
      "apogee_km": 593.6970691492579,
      "perigee_km": 586.9418474585782,
      "latitude_deg": 3.049227784991157e-05,
      "longitude_deg": -88.45652705681222,
      "height_km": 592.1193710182471,
      "semi_major_axis_km": 6968.456458303918,
      "eccentricity": 0.0004847,
      "inclination_deg": 97.7622,
      "raan_deg": 87.7846,
      "arg_perigee_deg": 68.5667,
      "mean_anomaly_deg": 291.6069,
      "mean_motion_rev_day": 14.92443421
    },
    {
      "epoch": "2026-05-09T20:46:24.321792Z",
      "apogee_km": 593.6337876293392,
      "perigee_km": 586.977531201067,
      "latitude_deg": 3.508121433288625e-05,
      "longitude_deg": -90.50254642076195,
      "height_km": 592.0283150408534,
      "semi_major_axis_km": 6968.442659415203,
      "eccentricity": 0.0004776,
      "inclination_deg": 97.7619,
      "raan_deg": 88.7758,
      "arg_perigee_deg": 66.7876,
      "mean_anomaly_deg": 293.3846,
      "mean_motion_rev_day": 14.92447854
    },
    {
      "epoch": "2026-05-10T20:54:35.072064Z",
      "apogee_km": 593.5889981438595,
      "perigee_km": 586.9898982973937,
      "latitude_deg": -6.541010379385076e-05,
      "longitude_deg": -92.54697016436604,
      "height_km": 591.9072532611692,
      "semi_major_axis_km": 6968.426448220626,
      "eccentricity": 0.0004735,
      "inclination_deg": 97.762,
      "raan_deg": 89.7674,
      "arg_perigee_deg": 64.5703,
      "mean_anomaly_deg": 295.6005,
      "mean_motion_rev_day": 14.92453062
    },
    {
      "epoch": "2026-05-11T19:26:12.814656Z",
      "apogee_km": 593.5440912825652,
      "perigee_km": 587.003540890586,
      "latitude_deg": -2.7473858901253752e-05,
      "longitude_deg": -70.45419353662345,
      "height_km": 591.8179570612117,
      "semi_major_axis_km": 6968.410816086575,
      "eccentricity": 0.0004693,
      "inclination_deg": 97.7618,
      "raan_deg": 90.6926,
      "arg_perigee_deg": 62.8815,
      "mean_anomaly_deg": 297.2882,
      "mean_motion_rev_day": 14.92458084
    }
  ]
}